QIANFAN-58              
1 62788U 25016D   25207.18408031  .00000153  00000+0  21789-3 0  9994
2 62788  88.9830 117.4566 0015604  32.8670 327.3448 13.50953645 28407
QIANFAN-59              
1 62789U 25016E   25207.19650082  .00000153  00000+0  21755-3 0  9994
2 62789  88.9853 117.4927 0016581  35.4105 324.8144 13.50958074 28407
QIANFAN-60              
1 62790U 25016F   25207.18809904  .00000166  00000+0  23812-3 0  9994
2 62790  88.9834 117.4996 0017000  33.2342 326.9873 13.50966427 28380
QIANFAN-61              
1 62791U 25016G   25207.20061613  .00000143  00000+0  20212-3 0  9991
2 62791  88.9902 117.5612 0016400  32.2443 327.9708 13.50955972 28401
QIANFAN-62              
1 62792U 25016H   25207.20454912  .00000147  00000+0  20924-3 0  9994
2 62792  88.9848 117.5047 0017810  32.0814 328.1418 13.50954889 28394
QIANFAN-63              
1 62793U 25016J   25207.21689016  .00000110  00000+0  15140-3 0  9995
2 62793  88.9855 117.4427 0017718  36.1879 324.0467 13.50951884 28433
